$$SOE
2459580.500000000, A.D. 2022-Jan-01 00:00:00.0000, -3.593882808358535E+08, -3.397943016408218E+08, 2.762796764445782E+07,
2459587.500000000, A.D. 2022-Jan-08 00:00:00.0000, -3.526186946451254E+08, -3.461583932916467E+08, 2.907421662925772E+07,
2459594.500000000, A.D. 2022-Jan-15 00:00:00.0000, -3.457080017193000E+08, -3.523839116120672E+08, 3.050882757788917E+07,
2459601.500000000, A.D. 2022-Jan-22 00:00:00.0000, -3.386586316491069E+08, -3.584680267091472E+08, 3.193119645285608E+07,
2459608.500000000, A.D. 2022-Jan-29 00:00:00.0000, -3.314730653275177E+08, -3.644079329095817E+08, 3.334071986604472E+07,
2459615.500000000, A.D. 2022-Feb-05 00:00:00.0000, -3.241538375767843E+08, -3.702008499858114E+08, 3.473679528280805E+07,
2459622.500000000, A.D. 2022-Feb-12 00:00:00.0000, -3.167035376156256E+08, -3.758440254882778E+08, 3.611882094561510E+07,
2459629.500000000, A.D. 2022-Feb-19 00:00:00.0000, -3.091248086911129E+08, -3.813347358163093E+08, 3.748619583272451E+07,
2459636.500000000, A.D. 2022-Feb-26 00:00:00.0000, -3.014203481855971E+08, -3.866702867514802E+08, 3.883831971324308E+07,
2459643.500000000, A.D. 2022-Mar-05 00:00:00.0000, -2.935929080380015E+08, -3.918480140713831E+08, 4.017459323355910E+07,
2459650.500000000, A.D. 2022-Mar-12 00:00:00.0000, -2.856452952563722E+08, -3.968652843109668E+08, 4.149441800943163E+07,
2459657.500000000, A.D. 2022-Mar-19 00:00:00.0000, -2.775803724497089E+08, -4.017194956448282E+08, 4.279719671958466E+07,
2459664.500000000, A.D. 2022-Mar-26 00:00:00.0000, -2.694010583558507E+08, -4.064080788972442E+08, 4.408233319838344E+07,
2459671.500000000, A.D. 2022-Apr-02 00:00:00.0000, -2.611103282962904E+08, -4.109284987359269E+08, 4.534923251683657E+07,
2459678.500000000, A.D. 2022-Apr-09 00:00:00.0000, -2.527112142836979E+08, -4.152782550447024E+08, 4.659730102727608E+07,
2459685.500000000, A.D. 2022-Apr-16 00:00:00.0000, -2.442068044223214E+08, -4.194548838216778E+08, 4.782594639230029E+07,
2459692.500000000, A.D. 2022-Apr-23 00:00:00.0000, -2.356002428674245E+08, -4.234559565200097E+08, 4.903457780297346E+07,
2459699.500000000, A.D. 2022-Apr-30 00:00:00.0000, -2.268947322114699E+08, -4.272790800786124E+08, 5.022260637448606E+07,
2459706.500000000, A.D. 2022-May-07 00:00:00.0000, -2.180935352328499E+08, -4.309218996194375E+08, 5.138944527753511E+07,
2459713.500000000, A.D. 2022-May-14 00:00:00.0000, -2.091999746174579E+08, -4.343821007758808E+08, 5.253450972702648E+07,
2459720.500000000, A.D. 2022-May-21 00:00:00.0000, -2.002174326835822E+08, -4.376574108946077E+08, 5.365721707702281E+07,
2459727.500000000, A.D. 2022-May-28 00:00:00.0000, -1.911493515872240E+08, -4.407456000694556E+08, 5.475698698780701E+07,
2459734.500000000, A.D. 2022-Jun-04 00:00:00.0000, -1.819992337280202E+08, -4.436444823200086E+08, 5.583324161416839E+07,
2459741.500000000, A.D. 2022-Jun-11 00:00:00.0000, -1.727706422077091E+08, -4.463519169129194E+08, 5.688540580187769E+07,
2459748.500000000, A.D. 2022-Jun-18 00:00:00.0000, -1.634672012989185E+08, -4.488658098137289E+08, 5.791290729011250E+07,
2459755.500000000, A.D. 2022-Jun-25 00:00:00.0000, -1.540925968916003E+08, -4.511841153039239E+08, 5.891517691489759E+07,
2459762.500000000, A.D. 2022-Jul-02 00:00:00.0000, -1.446505767801717E+08, -4.533048378306322E+08, 5.989164879653756E+07,
2459769.500000000, A.D. 2022-Jul-09 00:00:00.0000, -1.351449503983780E+08, -4.552260339135122E+08, 6.084176049042356E+07,
2459776.500000000, A.D. 2022-Jul-16 00:00:00.0000, -1.255795880544070E+08, -4.569458130271912E+08, 6.176495319545987E+07,
2459783.500000000, A.D. 2022-Jul-23 00:00:00.0000, -1.159584218617114E+08, -4.584623373819585E+08, 6.266067222863340E+07,
2459790.500000000, A.D. 2022-Jul-30 00:00:00.0000, -1.062854482777168E+08, -4.597738239569252E+08, 6.352836748430215E+07,
2459797.500000000, A.D. 2022-Aug-06 00:00:00.0000, -9.656472864781621E+07, -4.608785481389113E+08, 6.436749360170703E+07,
2459804.500000000, A.D. 2022-Aug-13 00:00:00.0000, -8.680038857453774E+07, -4.617748462141700E+08, 6.517751014217961E+07,
2459811.500000000, A.D. 2022-Aug-20 00:00:00.0000, -7.699661767785154E+07, -4.624611172169521E+08, 6.595788187957703E+07,
2459818.500000000, A.D. 2022-Aug-27 00:00:00.0000, -6.715766967467892E+07, -4.629358248615295E+08, 6.670807913884912E+07,
2459825.500000000, A.D. 2022-Sep-03 00:00:00.0000, -5.728786252549510E+07, -4.631974996680197E+08, 6.742757815132941E+07,
2459832.500000000, A.D. 2022-Sep-10 00:00:00.0000, -4.739157855328943E+07, -4.632447412578465E+08, 6.811586142068900E+07,
2459839.500000000, A.D. 2022-Sep-17 00:00:00.0000, -3.747326450047544E+07, -4.630762208205748E+08, 6.877241809695862E+07,
2459846.500000000, A.D. 2022-Sep-24 00:00:00.0000, -2.753743145827824E+07, -4.626906838032801E+08, 6.939674434926315E+07,
2459853.500000000, A.D. 2022-Oct-01 00:00:00.0000, -1.758865442370921E+07, -4.620869528450317E+08, 6.998834371380024E+07,
2459860.500000000, A.D. 2022-Oct-08 00:00:00.0000, -7.631571071996924E+06, -4.612639304343888E+08, 7.054672742265525E+07,
2459867.500000000, A.D. 2022-Oct-15 00:00:00.0000, 2.329119328554064E+06, -4.602206000900623E+08, 7.107141489700350E+07,
2459874.500000000, A.D. 2022-Oct-22 00:00:00.0000, 1.228865468298730E+07, -4.589560277469065E+08, 7.156193446692519E+07,
2459881.500000000, A.D. 2022-Oct-29 00:00:00.0000, 2.224220902149151E+07, -4.574693659389727E+08, 7.201782387643950E+07,
2459888.500000000, A.D. 2022-Nov-05 00:00:00.0000, 3.218489374231384E+07, -4.557598580379798E+08, 7.243863060535218E+07,
2459895.500000000, A.D. 2022-Nov-12 00:00:00.0000, 4.211175918673819E+07, -4.538268412794617E+08, 7.282391229207253E+07,
2459902.500000000, A.D. 2022-Nov-19 00:00:00.0000, 5.201779583221120E+07, -4.516697495292344E+08, 7.317323724564628E+07,
2459909.500000000, A.D. 2022-Nov-26 00:00:00.0000, 6.189793537109134E+07, -4.492881161851398E+08, 7.348618499052343E+07,
2459916.500000000, A.D. 2022-Dec-03 00:00:00.0000, 7.174705184613845E+07, -4.466815772220827E+08, 7.376234682759856E+07,
2459923.500000000, A.D. 2022-Dec-10 00:00:00.0000, 8.155996289371729E+07, -4.438498743567711E+08, 7.400132640810850E+07,
2459930.500000000, A.D. 2022-Dec-17 00:00:00.0000, 9.133143112602416E+07, -4.407928583514122E+08, 7.420274031504150E+07,
2459937.500000000, A.D. 2022-Dec-24 00:00:00.0000, 1.010561657696437E+08, -4.375104925168561E+08, 7.436621863588198E+07,
2459944.500000000, A.D. 2022-Dec-31 00:00:00.0000, 1.107288249265176E+08, -4.340028563036010E+08, 7.449140550258760E+07,
2459951.500000000, A.D. 2023-Jan-07 00:00:00.0000, 1.203440185878259E+08, -4.302701480152051E+08, 7.457795966666827E+07,
2459958.500000000, A.D. 2023-Jan-14 00:00:00.0000, 1.298963104401815E+08, -4.263126861436862E+08, 7.462555533080485E+07,
2459965.500000000, A.D. 2023-Jan-21 00:00:00.0000, 1.393802178250946E+08, -4.221309124938521E+08, 7.463388303661853E+07,
2459972.500000000, A.D. 2023-Jan-28 00:00:00.0000, 1.487902135260407E+08, -4.177253972853244E+08, 7.460265025563152E+07,
2459979.500000000, A.D. 2023-Feb-04 00:00:00.0000, 1.581207291810887E+08, -4.130968431980190E+08, 7.453158194964010E+07,
2459986.500000000, A.D. 2023-Feb-11 00:00:00.0000, 1.673661585319081E+08, -4.082460885473636E+08, 7.442042124885355E+07,
2459993.500000000, A.D. 2023-Feb-18 00:00:00.0000, 1.765208604518186E+08, -4.031741104039115E+08, 7.426893018554811E+07,
2460000.500000000, A.D. 2023-Feb-25 00:00:00.0000, 1.855791620215753E+08, -3.978820278098627E+08, 7.407689044499747E+07,
2460007.500000000, A.D. 2023-Mar-04 00:00:00.0000, 1.945353617607182E+08, -3.923711050637439E+08, 7.384410412480421E+07,
2460014.500000000, A.D. 2023-Mar-11 00:00:00.0000, 2.033837330483952E+08, -3.866427550619532E+08, 7.357039449879432E+07,
2460021.500000000, A.D. 2023-Mar-18 00:00:00.0000, 2.121185277859246E+08, -3.806985427349419E+08, 7.325560677567270E+07,
2460028.500000000, A.D. 2023-Mar-25 00:00:00.0000, 2.207339805098008E+08, -3.745401886131309E+08, 7.289960882859467E+07,
2460035.500000000, A.D. 2023-Apr-01 00:00:00.0000, 2.292243133848930E+08, -3.681695721173472E+08, 7.250229188784917E+07,
2460042.500000000, A.D. 2023-Apr-08 00:00:00.0000, 2.375837414665585E+08, -3.615887333371902E+08, 7.206357135224111E+07,
2460049.500000000, A.D. 2023-Apr-15 00:00:00.0000, 2.458064758969893E+08, -3.547998743906220E+08, 7.158338784150787E+07,
2460056.500000000, A.D. 2023-Apr-22 00:00:00.0000, 2.538867268464682E+08, -3.478053634015073E+08, 7.106170807192078E+07,
2460063.500000000, A.D. 2023-Apr-29 00:00:00.0000, 2.618187089366911E+08, -3.406077388265916E+08, 7.049852548591778E+07,
2460070.500000000, A.D. 2023-May-06 00:00:00.0000, 2.695966473876736E+08, -3.332097123359593E+08, 6.989386094074792E+07,
2460077.500000000, A.D. 2023-May-13 00:00:00.0000, 2.772147839118035E+08, -3.256141711253171E+08, 6.924776347042406E+07,
2460084.500000000, A.D. 2023-May-20 00:00:00.0000, 2.846673825883683E+08, -3.178241801351799E+08, 6.856031105674419E+07,
2460091.500000000, A.D. 2023-May-27 00:00:00.0000, 2.919487359102321E+08, -3.098429841898640E+08, 6.783161138638008E+07,
2460098.500000000, A.D. 2023-Jun-03 00:00:00.0000, 2.990531710572801E+08, -3.016740100134230E+08, 6.706180258783530E+07,
2460105.500000000, A.D. 2023-Jun-10 00:00:00.0000, 3.059750564159909E+08, -2.933208681189443E+08, 6.625105394163495E+07,
2460112.500000000, A.D. 2023-Jun-17 00:00:00.0000, 3.127088084283801E+08, -2.847873546131009E+08, 6.539956654698121E+07,
2460119.500000000, A.D. 2023-Jun-24 00:00:00.0000, 3.192488990839366E+08, -2.760774528413900E+08, 6.450757391637607E+07,
2460126.500000000, A.D. 2023-Jul-01 00:00:00.0000, 3.255898643013638E+08, -2.671953340277095E+08, 6.357534253960086E+07,
2460133.500000000, A.D. 2023-Jul-08 00:00:00.0000, 3.317263115185457E+08, -2.581453560697730E+08, 6.260317263513093E+07,
2460140.500000000, A.D. 2023-Jul-15 00:00:00.0000, 3.376529252030120E+08, -2.489320633035911E+08, 6.159139897144073E+07,
2460147.500000000, A.D. 2023-Jul-22 00:00:00.0000, 3.433644737911191E+08, -2.395601882529080E+08, 6.054039134652577E+07,
$$EOE